ONEWEB-0102             
1 47258U 20100A   24129.06412441 -.00000392  00000+0 -11249-2 0  9993
2 47258  87.8935 144.0076 0002146  90.4729 269.6645 13.12442479163717
ONEWEB-0109             
1 47259U 20100B   24129.52948139 -.00000387  00000+0 -11112-2 0  9996
2 47259  87.8936 143.8796 0002179  92.1188 268.0190 13.12443959163609
ONEWEB-0110             
1 47260U 20100C   24129.55331401  .00000178  00000+0  45813-3 0  9991
2 47260  87.8929 143.8821 0002194  95.5764 264.5615 13.12444501163771
ONEWEB-0111             
1 47261U 20100D   24128.74804729 -.00000147  00000+0 -44322-3 0  9992
2 47261  87.8935 144.0370 0002146  92.5480 267.5894 13.12444097163503
ONEWEB-0114             
1 47262U 20100E   24128.54951510 -.00000059  00000+0 -20013-3 0  9995
2 47262  87.8931 144.0936 0002536  86.2101 273.9317 13.12445590163433
ONEWEB-0117             
1 47263U 20100F   24128.77029657 -.00000347  00000+0 -99924-3 0  9996
2 47263  87.8935 144.0233 0002010  91.8290 268.3069 13.12443391163479
ONEWEB-0118             
1 47264U 20100G   24129.10701091  .00000504  00000+0  13664-2 0  9993
2 47264  87.8934 143.9603 0002336  77.5860 282.5529 13.12444527163711
ONEWEB-0119             
1 47265U 20100H   24129.51679400 -.00000208  00000+0 -61230-3 0  9993
2 47265  87.8934 143.9176 0002053  94.2121 265.9243 13.12440307163742
